{
  "norad_id": 63041,
  "name": "STARLINK-32820",
  "history": [
    {
      "epoch": "2026-03-28T17:54:00.309888",
      "apogee_km": 475.66131259935173,
      "perigee_km": 474.64771078477315,
      "latitude_deg": -17.75138900269411,
      "longitude_deg": -164.299655680079,
      "semi_major_axis_km": 6853.291511692062,
      "eccentricity": 7.395e-05,
      "inclination_deg": 53.1587,
      "raan_deg": 169.6592,
      "arg_perigee_deg": 81.3428,
      "mean_anomaly_deg": 278.7657,
      "mean_motion_rev_day": 15.30220282
    }
  ]
}